STARLINK-6274           
1 56776U 23078K   26166.45716953  .00000603  00000+0  58359-4 0  9994
2 56776  70.0002  78.1337 0002923 271.0387  89.0437 14.98335582167817
STARLINK-5582           
1 56777U 23078L   26166.54920330  .00000385  00000+0  40038-4 0  9993
2 56777  69.9999  97.9196 0003014 269.1944  90.8870 14.98329496167336
STARLINK-6304           
1 56778U 23078M   26166.45299935 -.00001437  00000+0 -11271-3 0  9991
2 56778  70.0001  78.1181 0003101 271.7830  88.2974 14.98322575167819
STARLINK-6231           
1 56779U 23078N   26166.16091711 -.00000458  00000+0 -30580-4 0  9999
2 56779  70.0003  78.7032 0002829 268.3819  91.7016 14.98330845167767
STARLINK-5963           
1 56780U 23078P   26166.54516619  .00000262  00000+0  29737-4 0  9995
2 56780  69.9998  97.5255 0003691 265.2296  94.8442 14.98330359167349
STARLINK-5989           
1 56781U 23078Q   26166.12777179 -.00000104  00000+0 -93019-6 0  9993
2 56781  69.9998  98.8551 0003052 260.6080  99.4734 14.98330520167271
STARLINK-6352           
1 56782U 23078R   26166.18178556  .00000132  00000+0  18892-4 0  9997
2 56782  70.0003  78.7765 0002781 272.2222  87.8618 14.98332107167771
STARLINK-6357           
1 56783U 23078S   26166.17343785  .00000423  00000+0  43251-4 0  9995
2 56783  70.0002  78.7463 0002747 268.6708  91.4136 14.98329540167779
STARLINK-6354           
1 56784U 23078T   26166.17761195  .00000542  00000+0  53238-4 0  9993
2 56784  69.9999  78.7611 0003080 268.9755  91.1052 14.98331053167779
STARLINK-5931           
1 56785U 23078U   26166.53668689 -.00001376  00000+0 -10759-3 0  9996
2 56785  70.0000  97.8749 0003086 269.0831  90.9975 14.98320822168025
STARLINK-6341           
1 56786U 23078V   26166.50306412  .00000237  00000+0  27685-4 0  9997
2 56786  70.0002  77.8909 0002968 265.8788  94.2032 14.98330139167827
STARLINK-6326           
1 56787U 23078W   26166.47802237 -.00000735  00000+0 -53802-4 0  9995
2 56787  70.0012  77.8081 0002557 268.0404  92.0462 14.98328983167821
STARLINK-6336           
1 56788U 23078X   26166.49889125 -.00000038  00000+0  45910-5 0  9996
2 56788  70.0002  77.8766 0002868 270.6207  89.4623 14.98328781167821
STARLINK-6345           
1 56790U 23078Z   26166.41520741 -.00000241  00000+0 -12374-4 0  9991
2 56790  70.0004  58.1035 0003189 267.7831  92.2963 14.98329981168300
STARLINK-5977           
1 56791U 23078AA  26166.23207360 -.00000950  00000+0 -71841-4 0  9992
2 56791  69.9998  98.4193 0002801 271.7374  88.3464 14.98337923167293
STARLINK-6046           
1 56792U 23078AB  26166.54085524 -.00000225  00000+0 -11040-4 0  9993
2 56792  69.9998  97.8907 0002832 270.1848  89.8986 14.98328324167338
STARLINK-6052           
1 56793U 23078AC  26166.51582215  .00000284  00000+0  31634-4 0  9994
2 56793  69.9987  97.8008 0003381 265.4149  94.6624 14.98330108167336
STARLINK-6060           
1 56794U 23078AD  26166.49054343  .00000095  00000+0  15765-4 0  9995
2 56794  70.0007  77.8470 0002581 260.9459  99.1408 14.98328224167829
STARLINK-6061           
1 56795U 23078AE  26166.46564699  .00000506  00000+0  50153-4 0  9990
2 56795  70.0005  77.7596 0003225 268.0082  92.0708 14.98336239167823
STARLINK-6049           
1 56796U 23078AF  26166.13194991  .00001379  00000+0  12338-3 0  9990
2 56796  69.9996  98.8703 0003148 264.6892  95.3908 14.98330807167271
STARLINK-6058           
1 56797U 23078AG  26166.54506086 -.00005450  00000+0 -44970-3 0  9991
2 56797  69.9995  97.8957 0003608 256.8328 103.2429 14.98292848167335
STARLINK-5953           
1 56799U 23078AJ  26166.51998110 -.00000383  00000+0 -24284-4 0  9990
2 56799  69.9997  97.8128 0003244 267.4557  92.6230 14.98332481167336
STARLINK-6036           
1 56800U 23078AK  26166.52415933  .00000431  00000+0  43915-4 0  9995
2 56800  69.9996  97.8299 0002888 269.9667  90.1161 14.98325468167332
STARLINK-6087           
1 56801U 23078AL  26166.14004641 -.00003094  00000+0 -25161-3 0  9996
2 56801  70.0001  78.6298 0003155 262.5703  97.5098 14.98335262167778
STARLINK-6029           
1 56803U 23078AN  26166.51163478  .00000011  00000+0  87484-5 0  9995
2 56803  69.9997  97.7869 0003136 268.6855  91.3945 14.98330776167331
STARLINK-6069           
1 56804U 23078AP  26166.48219657 -.00000158  00000+0 -54632-5 0  9996
2 56804  70.0003  77.8188 0002689 259.0495 101.0362 14.98326409168490
STARLINK-6064           
1 56805U 23078AQ  26166.48639308 -.00001698  00000+0 -13462-3 0  9990
2 56805  70.0011  77.8308 0002188 272.9485  87.1423 14.98312564167826
STARLINK-6072           
1 56806U 23078AR  26166.11477593  .00000148  00000+0  20219-4 0  9993
2 56806  70.0001  58.6594 0002651 268.5477  91.5379 14.98330843168232
STARLINK-6073           
1 56807U 23078AS  26166.13169758 -.00004535  00000+0 -37259-3 0  9994
2 56807  70.0027  78.6002 0003002 264.6752  95.4064 14.98321699167761
STARLINK-6042           
1 56808U 23078AT  26166.40443403 -.00000148  00000+0 -46035-5 0  9997
2 56808  70.0002  28.1675 0002985 268.4265  91.6552 14.98328327169050
