OBJECT_NAME,OBJECT_ID,EPOCH,MEAN_MOTION,ECCENTRICITY,INCLINATION,RA_OF_ASC_NODE,ARG_OF_PERICENTER,MEAN_ANOMALY,EPHEMERIS_TYPE,CLASSIFICATION_TYPE,NORAD_CAT_ID,ELEMENT_SET_NO,REV_AT_EPOCH,BSTAR,MEAN_MOTION_DOT,MEAN_MOTION_DDOT
STARLINK-6274,2023-078K,2026-06-15T10:58:19.447392,14.98335582,.00029233,70.0002,78.1337,271.0387,89.0437,0,U,56776,999,16781,.58358517E-4,.603E-5,0
STARLINK-5582,2023-078L,2026-06-15T13:10:51.165120,14.98329496,.00030145,69.9999,97.9196,269.1944,90.8870,0,U,56777,999,16733,.40038361E-4,.385E-5,0
STARLINK-6304,2023-078M,2026-06-15T10:52:19.143840,14.98322575,.00031015,70.0001,78.1181,271.7830,88.2974,0,U,56778,999,16781,-.11270905E-3,-.1437E-4,0
STARLINK-6231,2023-078N,2026-06-15T03:51:43.238304,14.98330845,.00028297,70.0003,78.7032,268.3819,91.7016,0,U,56779,999,16776,-.30579958E-4,-.458E-5,0
STARLINK-5963,2023-078P,2026-06-15T13:05:02.358816,14.98330359,.00036913,69.9998,97.5255,265.2296,94.8442,0,U,56780,999,16734,.29736818E-4,.262E-5,0
STARLINK-5989,2023-078Q,2026-06-15T03:03:59.482656,14.98330520,.00030524,69.9998,98.8551,260.6080,99.4734,0,U,56781,999,16727,-.930193E-6,-.104E-5,0
STARLINK-6352,2023-078R,2026-06-15T04:21:46.272384,14.98332107,.00027817,70.0003,78.7765,272.2222,87.8618,0,U,56782,999,16777,.1889188E-4,.132E-5,0
STARLINK-6357,2023-078S,2026-06-15T04:09:45.030240,14.98329540,.00027475,70.0002,78.7463,268.6708,91.4136,0,U,56783,999,16777,.4325107E-4,.423E-5,0
STARLINK-6354,2023-078T,2026-06-15T04:15:45.672480,14.98331053,.00030806,69.9999,78.7611,268.9755,91.1052,0,U,56784,999,16777,.53237622E-4,.542E-5,0
STARLINK-5931,2023-078U,2026-06-15T12:52:49.747296,14.98320822,.0003086,70.0000,97.8749,269.0831,90.9975,0,U,56785,999,16802,-.10759162E-3,-.1376E-4,0
STARLINK-6341,2023-078V,2026-06-15T12:04:24.739968,14.98330139,.00029684,70.0002,77.8909,265.8788,94.2032,0,U,56786,999,16782,.2768519E-4,.237E-5,0
STARLINK-6326,2023-078W,2026-06-15T11:28:21.132768,14.98328983,.00025571,70.0012,77.8081,268.0404,92.0462,0,U,56787,999,16782,-.53802249E-4,-.735E-5,0
STARLINK-6336,2023-078X,2026-06-15T11:58:24.204000,14.98328781,.00028683,70.0002,77.8766,270.6207,89.4623,0,U,56788,999,16782,.4591028E-5,-.38E-6,0
STARLINK-6345,2023-078Z,2026-06-15T09:57:53.920224,14.98329981,.00031891,70.0004,58.1035,267.7831,92.2963,0,U,56790,999,16830,-.12374122E-4,-.241E-5,0
STARLINK-5977,2023-078AA,2026-06-15T05:34:11.159040,14.98337923,.0002801,69.9998,98.4193,271.7374,88.3464,0,U,56791,999,16729,-.71841E-4,-.95E-5,0
STARLINK-6046,2023-078AB,2026-06-15T12:58:49.892736,14.98328324,.00028328,69.9998,97.8907,270.1848,89.8986,0,U,56792,999,16733,-.11040255E-4,-.225E-5,0
STARLINK-6052,2023-078AC,2026-06-15T12:22:47.033760,14.98330108,.00033816,69.9987,97.8008,265.4149,94.6624,0,U,56793,999,16733,.31633662E-4,.284E-5,0
STARLINK-6060,2023-078AD,2026-06-15T11:46:22.952352,14.98328224,.00025818,70.0007,77.8470,260.9459,99.1408,0,U,56794,999,16782,.15765025E-4,.95E-6,0
STARLINK-6061,2023-078AE,2026-06-15T11:10:31.899936,14.98336239,.00032255,70.0005,77.7596,268.0082,92.0708,0,U,56795,999,16782,.50152594E-4,.506E-5,0
STARLINK-6049,2023-078AF,2026-06-15T03:10:00.472224,14.98330807,.00031484,69.9996,98.8703,264.6892,95.3908,0,U,56796,999,16727,.12337579E-3,.1379E-4,0
STARLINK-6058,2023-078AG,2026-06-15T13:04:53.258304,14.98292848,.00036081,69.9995,97.8957,256.8328,103.2429,0,U,56797,999,16733,-.44969554E-3,-.545E-4,0
STARLINK-5953,2023-078AJ,2026-06-15T12:28:46.367040,14.98332481,.00032448,69.9997,97.8128,267.4557,92.6230,0,U,56799,999,16733,-.24283953E-4,-.383E-5,0
STARLINK-6036,2023-078AK,2026-06-15T12:34:47.366112,14.98325468,.00028885,69.9996,97.8299,269.9667,90.1161,0,U,56800,999,16733,.4391485E-4,.431E-5,0
STARLINK-6087,2023-078AL,2026-06-15T03:21:40.009824,14.98335262,.00031552,70.0001,78.6298,262.5703,97.5098,0,U,56801,999,16777,-.25160579E-3,-.3094E-4,0
STARLINK-6029,2023-078AN,2026-06-15T12:16:45.244992,14.98330776,.00031363,69.9997,97.7869,268.6855,91.3945,0,U,56803,999,16733,.8748437E-5,.11E-6,0
STARLINK-6069,2023-078AP,2026-06-15T11:34:21.783648,14.98326409,.00026894,70.0003,77.8188,259.0495,101.0362,0,U,56804,999,16849,-.5463191E-5,-.158E-5,0
STARLINK-6064,2023-078AQ,2026-06-15T11:40:24.362112,14.98312564,.00021887,70.0011,77.8308,272.9485,87.1423,0,U,56805,999,16782,-.13461891E-3,-.1698E-4,0
STARLINK-6072,2023-078AR,2026-06-15T02:45:16.640352,14.98330843,.00026516,70.0001,58.6594,268.5477,91.5379,0,U,56806,999,16823,.20218949E-4,.148E-5,0
STARLINK-6073,2023-078AS,2026-06-15T03:09:38.670912,14.98321699,.00030029,70.0027,78.6002,264.6752,95.4064,0,U,56807,999,16776,-.37259151E-3,-.4535E-4,0
STARLINK-6042,2023-078AT,2026-06-15T09:42:23.100192,14.98328327,.0002985,70.0002,28.1675,268.4265,91.6552,0,U,56808,999,16905,-.4603526E-5,-.148E-5,0
